#dP2022  7 18  0  0  0.00000000      97 __u+U IGS14 FIT  IAC
## 2219  86400.00000000   900.00000000 59778 0.0000000000000
+  116   C06C07C08C09C10C11C12C13C14C16C19C20C21C22C23C24C25
+        C26C27C28C29C30C32C33C34C35C36C37C38C39C40C41C42C43
+        C44C45C46E01E02E03E04E05E07E08E09E10E11E12E13E14E15
+        E18E19E21E24E25E26E27E30E31E33E34E36G01G02G03G04G05
+        G06G07G08G09G10G11G12G13G14G15G16G17G18G19G20G21G22
+        G23G24G25G26G27G28G29G30G31G32J02J03R01R02R03R04R05
+        R07R08R09R11R12R13R14R15R17R18R19R20R21R24  0  0  0
++         7  7  7  7  7  6  6  7  6  7  5  6  6  5  6  5  6
++         6  5  5  6  5  5  6  6  6  6  6  6  6  6  6  6  6
++         6  6  6  4  4  4  4  4  5  4  4  5  4  4  4  5  4
++         4  5  4  4  4  4  4  4  4  4  4  4  3  4  3  3  4
++         3  4  4  3  3  3  3  4  3  3  4  3  3  3  4  3  3
++         3  3  4  3  3  4  4  3  3  3  9  9  7  6  6  6  6
++         6  6  6  6  6  7  6  6  6  6  8  7  6  6  0  0  0
%c M  cc GPS ccc cccc cccc cccc cccc ccccc ccccc ccccc ccccc
%c cc cc ccc ccc cccc cccc cccc cccc ccccc ccccc ccccc ccccc
%f  1.2500000  1.025000000  0.00000000000  0.000000000000000
%f  0.0000000  0.000000000  0.00000000000  0.000000000000000
%i    0    0    0    0      0      0      0      0         0
%i    0    0    0    0      0      0      0      0         0
/* INFORMATION & ANALYSIS CENTER (IAC)            FINAL DATA
/* S/V CLOCKS ARE ALIGNED TO GNSS TIME                      
/* G:C1WC2W R:C1PC2P E:C1XC5X C:C2IC6I J:C1CC2S             
/* PCV:IGS14_2215 OL/AL:FES2004  NONE     YN ORB:CoN CLK:CoN
*  2022 07 18  4 30  0.00000000
PC06 -14295.461986  24574.654261 -31182.224375    417.422956
PC07 -11189.303013  40547.008411    411.920354   -443.967299
PC08   2692.190871  29896.997020  29666.132162    408.397906
PC09  -6414.742048  24510.866066 -33397.152427   -924.324739
PC10  -5906.218562  41012.859174   6378.775360    117.446082
PC11   9639.409252 -15799.421740 -20839.148744    481.084203
PC12  24784.547172 -10253.994638  -7712.399179   -574.429435
PC13   6568.478915  32554.371258  26262.350533     27.119902
PC14   7388.835661 -26911.543865   1351.332285    546.372332
PC16 -17120.223414  23724.792998 -30251.072526    143.223138
PC19   -552.604778  25854.117204 -10435.450825   -233.519173
PC20 -12127.303786  24300.400088   6351.764853   -963.923340
PC21  17208.150152  -8008.969550 -20451.544601     -4.831097
PC22  11863.771212  12493.945058 -21947.140895   -962.892393
PC23 -20568.021162 -18464.647412  -3835.390210   -947.051798
PC24   9332.389510 -13730.867166  22426.846867   -967.718640
PC25  -9516.639742 -23000.490718  12594.179543   -706.014994
PC26  20449.255908   1726.023320  18917.239912    707.992099
PC27 -27429.071299   5093.465197   -896.649964    755.920531
PC28 -21344.134749  -7193.460461 -16472.288928     91.261244
PC29   2626.732780  15731.168423  22888.425404    583.167882
PC30 -17985.789281  15203.861123  14972.770283    501.196876
PC32 -17160.068182   8011.807889  20504.338545   -972.324354
PC33    444.165400 -25916.401542  10369.338411   -191.988921
PC34  17011.991140 -15523.036305 -15762.781159   -356.392347
PC35  20701.485267   7256.534510  17219.920817    370.891044
PC36   8542.933635  23153.662835 -12996.333050   -972.703352
PC37 -20818.935420  -3341.664365 -18249.099190   -918.294556
PC38  -5267.714078  26584.624977  32347.395095     10.884798
PC39 -22350.832713  23804.111051 -26748.628304     -0.084923
PC40 -17658.436356  38071.670202  -2521.204664     -0.760122
PC41 -11691.945716 -13005.456767  21796.748851    -89.635304
PC42  12613.380665 -23801.626567  -7294.659068   -953.248141
PC43  -1785.605538 -16031.746319 -22783.295635      3.547251
PC44  27225.557281  -5965.096359   1037.603445    727.595299
PC45  20688.517616  18269.977203   4191.481111    811.786936
PC46  -7789.000149  14953.501108 -22232.116027   -437.823510
PE01  17331.055479  10570.388009  21547.993331   -517.278330
PE02 -17340.620704 -10370.924125 -21624.154158    312.644815
PE03 -21764.166379    865.189863  20037.945324   -580.132392
PE04  23642.329453 -17135.908360  -4859.540115  -1073.807700
PE05  -7045.789803 -16239.575743  23729.618087   -161.949514
PE07 -11540.523920  23632.253236 -13564.326997   -688.503496
PE08 -23519.847036  17327.167222   4728.797267   -565.544966
PE09  11531.352344 -23623.115635  13629.284594   -591.441766
PE10  14095.507826 -11491.211608 -23371.788028   -501.291114
PE11   2684.283641 -16010.391966 -24769.754742   2970.481088
PE12  22617.147761  -5478.222881 -18295.487128    -67.874428
PE13  -3475.434772  15699.829397  24846.208006    429.859850
PE14  24716.412456 -17600.092015  -1377.644146  -1775.886652
PE15 -22719.389674   5352.908911  18200.189081    732.576720
PE18 -24067.078393   6961.267690  -8424.098676  -1201.224901
PE19  20428.709614   1432.318284 -21364.083756  -5062.466413
PE21  11525.206689  25984.360921   8255.963548   -746.545342
PE24   2208.296307 -27141.982689  11573.831014   -730.931898
PE25 -11363.454841 -26139.919258  -7974.783125   -581.440883
PE26  18399.782672  16694.208499  16090.541155  -1389.775948
PE27  -1299.793811  27595.903589 -10625.979493   -347.347474
PE30 -13747.884186  11958.764591 -23332.307124   -681.200027
PE31  13253.473249 -12948.004809  23095.975439   -500.106746
PE33  28458.307776   8089.795110   -865.808798   -454.607304
PE34 -28491.185321  -7936.816961   1027.601719   -486.400668
PE36 -17645.669393 -16754.092955 -16864.277863   -403.752367
PG01 -21634.098329 -14422.079207  -6563.248388    319.282985
PG02   3637.569702  16595.670929  21030.208653   -651.205783
PG03 -12271.160646 -18255.374318  14847.622513   -310.014776
PG04 -13773.898505  -8385.007153  21128.146691   -144.579027
PG05   6079.633780  25641.919584  -2799.022480    -89.541310
PG06 -12568.423927   9850.118777  21298.939986    389.472679
PG07 -25028.598600  -4720.944647  -7958.985028    318.874673
PG08  -6719.745012 -13853.595112 -21649.445098    -76.678170
PG09 -21119.534000   2131.091258  15919.959158   -317.920709
PG10  12023.025441 -12622.235140 -19799.584934   -495.804105
PG11    817.492744  16533.843010  20770.214263    -10.570835
PG12   9719.980626  21082.412646  12735.329339   -248.132054
PG13  -4140.193473  17617.418800 -19535.060915    350.567281
PG14 -13478.495476  10914.472333 -20084.320498   -111.684492
PG15   8704.876011  13740.166102 -21390.995969    -44.550896
PG16    710.449952 -26197.113024   2060.741484   -515.951972
PG17 -22731.463249  13658.379730  -1474.793864    638.129728
PG18  24676.106149   4514.539048  -8926.735594    109.980679
PG19 -19353.561606  16640.608380   6639.308059    185.176152
PG20   -336.573805  24818.173609   9769.409563    502.304861
PG21 -16288.276509 -15710.662086 -13824.601293    161.061127
PG22  16712.634592 -18343.767793   9636.792384    294.229543
PG23  15030.126971   -975.322904 -21891.637955    -33.397046
PG24  19753.629018  14893.881356 -10510.634223    194.044293
PG25  15203.729558   8300.316155  19920.348135    350.441914
PG26   5241.081681 -22705.707763  12366.367101    218.832612
PG27   6565.231145 -19357.777611 -16955.778398    220.823456
PG28  -9561.173251  19797.582138 -14558.386505    335.306858
PG29  21229.609037   -817.485284  15938.476877   -534.577575
PG30 -20521.006125   4051.026166 -16422.636375   -534.223436
PG31  10783.124896 -11606.708240  21241.818682   -186.183760
PG32  20954.186167 -16148.167268    311.580586   -179.203336
PJ02 -20414.953067  25765.766713 -21781.058657     -1.831122
PJ03 -28333.544011  26229.358990  21871.029169     -0.169140
PR01    744.918082 -19316.073234  16653.358309     11.660100
PR02 -10844.726018  -2648.448168  22982.338796    524.456683
PR03 -15393.381084  14174.894063  14671.235490     60.402054
PR04 -11388.251202  22771.388687  -1618.244470    151.027184
PR05  -1209.747710  18939.740648 -17044.648545     96.414298
PR07  15350.738962 -14740.886945 -13987.071872     38.020143
PR08  11159.763890 -22848.827553   1893.821144    -66.254307
PR09  16876.522902  13804.748530  13194.570973     66.372688
PR11    466.585464 -16349.823949  19594.390809     32.974871
PR12 -11742.317081 -22252.432988   4188.752641     19.349409
PR13 -16688.996851 -15066.602965 -12059.899202    -24.724964
PR14 -11682.760176   2043.435633 -22567.792039     24.849165
PR15    -53.600565  16995.640478 -18993.277823     94.630355
PR17 -23929.908283   4226.274697   7685.272305    544.460298
PR18 -11893.583823   9473.546725  20502.261036     33.300157
PR19   4925.695490  10166.582356  22863.323773   -196.707019
PR20  22667.382150   4840.711224  10609.461424    -74.824727
PR21  23353.536613  -4712.946096  -9164.446973   -318.292257
PR24 -23138.937047  -4148.945806  -9868.816065    104.132043
EOF
